JAISAT-1                
1 44419U 19038F   24032.46527802  .00058141  00000+0  10382-2 0  9992
2 44419  97.6857  29.8641 0009834 176.6475 183.4843 15.49807506253787
DUCHIFAT-3              
1 44854U 19089C   24032.46630958  .00010996  00000+0  63846-3 0  9998
2 44854  36.9587 155.8609 0008057  48.9063 311.2377 15.11573329227540
TIANYAN 01              
1 44881U 19093C   24032.52133077  .00001276  00000+0  16238-3 0  9994
2 44881  97.8415 111.9278 0015635  53.0451 307.2192 14.83227572222784
RS-44 & BREEZE-KM R/B   
1 44909U 19096E   24032.45108380  .00000028  00000+0  68626-4 0  9992
2 44909  82.5214 195.6081 0217560  11.1933 349.3895 12.79726239191481
BY70-2                  
1 45857U 20042B   24032.57525424  .00039875  00000+0  27501-2 0  9990
2 45857  97.9188 120.3777 0007730 312.9547  47.1030 15.05658485193856
SALSAT                  
1 46495U 20068K   24032.40739001  .00005869  00000+0  35720-3 0  9996
2 46495  97.8004 348.6766 0016375  63.7275 296.5634 15.10709159183645
RADFXSAT-2 (AO-109)     
1 47311U 21002C   24032.15409655  .00093971  00000+0  96896-3 0  9996
2 47311  60.6711 245.5488 0025733  72.1827 288.2084 15.63815909169748
UVSQ-SAT                
1 47438U 21006AB  24032.14158300  .00026886  00000+0  78834-3 0  9990
2 47438  97.3508  92.0756 0007678 357.1573   2.9626 15.35132437167630
LEDSAT                  
1 49069U 21073D   24032.18573241  .00010351  00000+0  48360-3 0  9996
2 49069  97.4554 104.6773 0022321  47.1414 313.1691 15.19765690135612
XW-3 (CAS-9)            
1 50466U 21131B   24032.54030106  .00000759  00000+0  25841-3 0  9992
2 50466  98.5362 118.2621 0004576 162.1122 198.0228 14.39333865110348
TEVEL-3                 
1 50988U 22002E   24032.57523085  .00042874  00000+0  10547-2 0  9995
2 50988  97.4017 104.7616 0005401 134.1113 226.0579 15.40484569113876
TEVEL-8                 
1 50989U 22002F   24032.47582237  .00044673  00000+0  11026-2 0  9991
2 50989  97.4034 104.7438 0005352 133.1159 227.0536 15.40374206113850
TEVEL-5                 
1 50998U 22002Q   24032.47535041  .00048657  00000+0  11266-2 0  9994
2 50998  97.4010 105.4376 0006051 127.7256 232.4540 15.42282501113917
TEVEL-6                 
1 50999U 22002R   24032.47539233  .00048751  00000+0  11299-2 0  9993
2 50999  97.4008 105.4236 0006038 127.5870 232.5927 15.42252174113918
TEVEL-1                 
1 51013U 22002AF  24032.52942160  .00043508  00000+0  10735-2 0  9993
2 51013  97.4008 104.6117 0005268 133.4790 226.6895 15.40391143113866
TEVEL-7                 
1 51062U 22002CG  24032.47153490  .00043914  00000+0  10817-2 0  9993
2 51062  97.4028 104.7099 0005384 133.4738 226.6956 15.40439221113850
TEVEL-4                 
1 51063U 22002CH  24032.55607569  .00044079  00000+0  10911-2 0  9992
2 51063  97.4026 104.7417 0005331 132.8193 227.3502 15.40289437113861
TEVEL-2                 
1 51069U 22002CP  24032.57540234  .00043311  00000+0  10647-2 0  9999
2 51069  97.4014 104.7285 0005383 134.1006 226.0683 15.40503812113875
GREENCUBE               
1 53106U 22080B   24030.91318460 -.00000003  00000+0  00000+0 0  9990
2 53106  70.1307 240.5663 0008315 134.1925 225.9418  6.42557763 36389
CYCLOPS (RS29S)         
1 53373U 22096D   24031.95562223  .00259364  00000+0  14812-2 0  9990
2 53373  97.3927 310.1395 0006749 101.4571 258.7454 15.78145496 83171
MONITOR-1 (RS32S)       
1 53374U 22096E   24031.93260595  .00166619  00000+0  12914-2 0  9997
2 53374  97.3872 309.0740 0006409  94.4902 265.7093 15.71308909 83118
KUZBASS-300 (RS34S)     
1 53375U 22096F   24032.55190339  .00075994  00000+0  10449-2 0  9991
2 53375  97.3972 307.6738 0004531  81.8981 278.2788 15.57025156 83060
UTMN (RS23S)            
1 53376U 22096G   24032.58579504  .00081762  00000+0  10165-2 0  9995
2 53376  97.3948 308.2034 0004975  87.2218 272.9608 15.59691905 83105
MIET-AIS (RS28S)        
1 53377U 22096H   24032.55136113  .00060563  00000+0  92371-3 0  9994
2 53377  97.3991 307.2606 0004045  83.5327 276.6387 15.54260132 83032
KAI-1 (RS26S)           
1 53378U 22096J   24032.59691285  .00040591  00000+0  74379-3 0  9992
2 53378  97.4036 306.2096 0003828  80.7109 279.4574 15.49197460 82968
ISOI (RS19S)            
1 53381U 22096M   24032.60032652  .00067225  00000+0  97347-3 0  9998
2 53381  97.4005 307.9291 0002639  73.1856 286.9687 15.55660890 83088
CUBESX-HSE-2 (RS21S)    
1 53383U 22096P   24032.55442569  .00083393  00000+0  10544-2 0  9993
2 53383  97.3959 308.4218 0002519  70.9688 289.1841 15.59249312 83114
SIREN (RS30S)           
1 53384U 22096Q   24032.54440538  .00053115  00000+0  87044-3 0  9996
2 53384  97.4007 307.1379 0001949  48.4773 311.6646 15.52303599 83020
GEOSCAN-EDELVEIS (RS20S)
1 53385U 22096R   24031.92933328  .00408884  00000+0  14329-2 0  9994
2 53385  97.3865 311.6405 0005589 116.0599 244.1249 15.88245178 83301
CAS-5A (FO-118)         
1 54684U 22167C   24032.60126366  .00019353  00000+0  84718-3 0  9997
2 54684  97.5857 175.2625 0011146 263.7771  96.2195 15.22028520 63473
STRATOSAT-TK 1 (RS52S)  
1 57167U 23091B   24032.57727314  .00010080  00000+0  65913-3 0  9993
2 57167  97.6333  86.3673 0015716 223.8690 136.1291 15.07883750 32947
UMKA 1 (RS40S)          
1 57172U 23091G   24032.57590939  .00004676  00000+0  32753-3 0  9990
2 57172  97.6330  86.0611 0016478 224.0712 135.9202 15.05614170 32926
CUBESX-HSE 3 (RS42S)    
1 57178U 23091N   24032.55206045  .00006914  00000+0  47407-3 0  9995
2 57178  97.6379  86.1979 0017263 218.6395 141.3598 15.06228413 32923
MONITOR-4 (RS57S)       
1 57182U 23091S   24032.57306952  .00005952  00000+0  41175-3 0  9997
2 57182  97.6354  86.1378 0017639 219.8914 140.1018 15.05951067 32922
MONITOR-2 (RS39S)       
1 57184U 23091U   24032.56267237  .00005024  00000+0  34823-3 0  9992
2 57184  97.6368  86.3177 0013911 212.4515 147.5858 15.06002828 32930
SVYATOBOR 1 (RS60S)     
1 57187U 23091X   24032.55914439  .00006416  00000+0  43324-3 0  9999
2 57187  97.6372  86.4793 0013526 210.0093 150.0360 15.06873511 32943
VIZARD-METEO (RS38S)    
1 57189U 23091Z   24032.54716405  .00007164  00000+0  47241-3 0  9996
2 57189  97.6369  86.6277 0012403 206.8393 153.2194 15.07720047 32956
NANOZOND 1 (RS49S)      
1 57190U 23091AA  24032.58455370  .00008913  00000+0  56652-3 0  9992
2 57190  97.6336  86.8104 0010932 212.1756 147.8807 15.09017831 32975
POLYTECH-UNIVERSE 3 (R*)
1 57191U 23091AB  24032.55753382  .00004993  00000+0  34681-3 0  9996
2 57191  97.6338  86.0791 0019196 231.3669 128.5840 15.05858738 32922
UTMN 2 (RS27S)          
1 57203U 23091AP  24032.57062082  .00006666  00000+0  44330-3 0  9993
2 57203  97.6357  86.5953 0012897 208.0767 151.9766 15.07432614 32956
ARCCUBE 1 (RS25S)       
1 57205U 23091AR  24032.56319056  .00011693  00000+0  73262-3 0  9992
2 57205  97.6315  86.7869 0011200 215.1024 144.9468 15.09466672 32978
KUZGTU 1 (RS47S)        
1 57217U 23091AV  24032.55191301  .00006637  00000+0  45598-3 0  9998
2 57217  97.6355  86.1283 0017125 219.9877 140.0089 15.06170237 32926
HADES-D (SO-121)        
1 58567U 23174CY  24032.18547923  .00022184  00000+0  11116-2 0  9996
2 58567  97.4716 108.8228 0014911 352.2035   7.8964 15.17278528 12937
